{
    "links": {
        "self": "http://www.neowsapp.com/rest/v1/neo/3825625?api_key=iIulBulltgU6a56xZRHN4H3l9WmuAYTsLGpBGhQ2"
    },
    "id": "3825625",
    "neo_reference_id": "3825625",
    "name": "(2018 NR3)",
    "designation": "2018 NR3",
    "nasa_jpl_url": "http://ssd.jpl.nasa.gov/sbdb.cgi?sstr=3825625",
    "absolute_magnitude_h": 24.1,
    "estimated_diameter": {
        "kilometers": {
            "estimated_diameter_min": 0.040230458,
            "estimated_diameter_max": 0.0899580388
        },
        "meters": {
            "estimated_diameter_min": 40.2304579834,
            "estimated_diameter_max": 89.9580388169
        },
        "miles": {
            "estimated_diameter_min": 0.0249980399,
            "estimated_diameter_max": 0.0558973165
        },
        "feet": {
            "estimated_diameter_min": 131.9896957704,
            "estimated_diameter_max": 295.1379320721
        }
    },
    "is_potentially_hazardous_asteroid": false,
    "close_approach_data": [
        {
            "close_approach_date": "2018-07-09",
            "close_approach_date_full": "2018-Jul-09 13:56",
            "epoch_date_close_approach": 1531144560000,
            "relative_velocity": {
                "kilometers_per_second": "10.5799289352",
                "kilometers_per_hour": "38087.7441666091",
                "miles_per_hour": "23666.24303508"
            },
            "miss_distance": {
                "astronomical": "0.1066256059",
                "lunar": "41.4773606951",
                "kilometers": "15950963.530099433",
                "miles": "9911469.1366728554"
            },
            "orbiting_body": "Earth"
        },
        {
            "close_approach_date": "2018-08-25",
            "close_approach_date_full": "2018-Aug-25 19:54",
            "epoch_date_close_approach": 1535226840000,
            "relative_velocity": {
                "kilometers_per_second": "12.8087060647",
                "kilometers_per_hour": "46111.3418327836",
                "miles_per_hour": "28651.7945960427"
            },
            "miss_distance": {
                "astronomical": "0.082714524",
                "lunar": "32.175949836",
                "kilometers": "12373916.60846388",
                "miles": "7688795.246326344"
            },
            "orbiting_body": "Mars"
        }
    ],
    "orbital_data": {
        "orbit_id": "1",
        "orbit_determination_date": "2018-07-14 08:12:03",
        "first_observation_date": "2018-07-12",
        "last_observation_date": "2018-07-14",
        "data_arc_in_days": 2,
        "observations_used": 12,
        "orbit_uncertainty": "9",
        "minimum_orbit_intersection": ".0511173",
        "jupiter_tisserand_invariant": "2.774",
        "epoch_osculation": "2458312.5",
        "eccentricity": ".6721038959565494",
        "semi_major_axis": "3.234375688731478",
        "inclination": "3.338533103082359",
        "ascending_node_longitude": "108.9662204174533",
        "orbital_period": "2124.633978924992",
        "perihelion_distance": "1.060539187347904",
        "perihelion_argument": "153.2695554188516",
        "aphelion_distance": "5.408212190115051",
        "perihelion_time": "2458291.179346228951",
        "mean_anomaly": "3.612591831681617",
        "mean_motion": ".1694409500982143",
        "equinox": "J2000",
        "orbit_class": {
            "orbit_class_type": "AMO",
            "orbit_class_description": "Near-Earth asteroid orbits similar to that of 1221 Amor",
            "orbit_class_range": "1.017 AU < q (perihelion) < 1.3 AU"
        }
    },
    "is_sentry_object": false
}